satname,norad_id,inclination_deg,eccentricity,mean_motion_rev_per_day,perigee_km,apogee_km,l1,l2
STARLINK-1573,46061,53.1594,0.000103,15.31705574,470.01794685299774,471.42881209116877,1 46061U 20055AL  26198.12257558  .00000508  00000+0  28140-4 0  9991,2 46061  53.1594 231.6438 0001030  80.1120 279.9998 15.31705574328902
STARLINK-1577,46063,53.1583,0.0001143,15.3169646,469.9677199550506,471.5333756484779,1 46063U 20055AN  26198.08528945  .00001241  00000+0  51759-4 0  9996,2 46063  53.1583 231.8156 0001143  65.2178 294.8942 15.31696460328899
STARLINK-1583,46064,53.1597,0.0001446,15.31700311,469.7487206715332,471.7294156304424,1 46064U 20055AP  26198.09933188 -.00001439  00000+0 -34614-4 0  9999,2 46064  53.1597 232.2542 0001446  75.9585 284.1577 15.31700311328881
STARLINK-1536,46070,53.158,0.000107,15.31696128,470.0187064069696,471.48436855399086,1 46070U 20055AV  26198.03537802  .00000926  00000+0  41592-4 0  9994,2 46070  53.1580 219.9347 0001070  80.5252 279.5870 15.31696128329055
STARLINK-1542,46073,53.1588,0.0001326,15.31694754,469.8474701601217,471.66379648647853,1 46073U 20055AY  26198.05974956  .00001700  00000+0  66551-4 0  9997,2 46073  53.1588 222.7913 0001326  62.8200 297.2936 15.31694754329005
STARLINK-1549,46074,53.048,0.0002289,15.34585167,460.5871978337709,463.7186825683948,1 46074U 20055AZ  26198.45333968  .00017864  00000+0  53540-3 0  9995,2 46074  53.0480 217.4047 0002289  43.1061 317.0119 15.34585167329094
STARLINK-1551,46075,53.1594,0.0001453,15.31700184,469.7443049835674,471.73458847898837,1 46075U 20055BA  26198.02638760  .00000063  00000+0  13793-4 0  9997,2 46075  53.1594 219.9122 0001453  66.9321 293.1834 15.31700184329045
STARLINK-1552,46076,53.1575,0.0001152,15.31703459,469.94069470402974,471.5186735880561,1 46076U 20055BB  26198.46909497  .00000948  00000+0  42306-4 0  9998,2 46076  53.1575 217.4359 0001152  87.2878 272.8255 15.31703459329105
STARLINK-1559,46077,53.0203,0.0004506,15.41915425,437.3841329886345,443.52904953307916,1 46077U 20055BC  26198.37610240  .00031368  00000+0  73302-3 0  9993,2 46077  53.0203 184.3686 0004506  39.7221 320.4112 15.41915425329514
STARLINK-1566,46079,53.1592,0.0001477,15.31709143,469.70116544730445,471.7243156606646,1 46079U 20055BE  26198.53898242 -.00001047  00000+0 -21975-4 0  9996,2 46079  53.1592 216.9628 0001477 117.7763 242.3388 15.31709143329130
STARLINK-1568,46080,53.0565,0.0002996,15.57516569,392.8179394670451,396.87631155505096,1 46080U 20055BF  26198.18850967  .00028434  00000+0  38470-3 0  9995,2 46080  53.0565 129.8382 0002996 116.7662 243.3656 15.57516569330300
STARLINK-1578,46082,53.1601,0.0001163,15.3170177,469.93819517191787,471.5312427337458,1 46082U 20055BH  26198.08663360 -.00000162  00000+0  65497-5 0  9995,2 46082  53.1601 219.5884 0001163  84.8570 275.2564 15.31701770329050
STARLINK-1579,46083,53.1587,0.0001222,15.31700326,469.9020907867198,471.5759560868473,1 46083U 20055BJ  26198.07291842  .00000526  00000+0  28698-4 0  9991,2 46083  53.1587 219.1855 0001222  76.7800 283.3338 15.31700326329055
STARLINK-1622,46128,53.0023,0.0013709,16.16858256,219.03934097574438,237.15231013685388,1 46128U 20057M   26198.59718858  .01094023  11743-4  68772-3 0  9994,2 46128  53.0023 291.4936 0013709 330.0245  30.0005 16.16858256327904
STARLINK-1623,46129,53.0358,0.0004618,15.87674158,305.71749891413856,311.8935590338997,1 46129U 20057N   26198.75003471  .00119407  00000+0  43380-3 0  9991,2 46129  53.0358 333.7222 0004618 306.7089 310.2314 15.87674158  6037
STARLINK-1596,46141,53.0322,0.0001923,15.66614431,367.3022697500892,369.89706467229826,1 46141U 20057AA  26198.72239312  .00077035  00000+0  72017-3 0  9996,2 46141  53.0322 321.4002 0001923 263.7703  96.3093 15.66614431327513
STARLINK-1597,46142,53.0363,0.0004912,15.86076084,310.00962697887826,316.58329120909184,1 46142U 20057AB  26198.75003471  .00054203  00000+0  21614-3 0  9994,2 46142  53.0363  13.6991 0004912 262.4128  14.3929 15.86076084  6020
STARLINK-1608,46146,53.1562,0.0004522,15.39666152,444.00938609975856,450.1821266046045,1 46146U 20057AF  26198.03914015  .00031337  00000+0  78880-3 0  9994,2 46146  53.1562  65.0100 0004522 107.7952 252.3547 15.39666152326037
STARLINK-1595,46159,53.0362,0.0003487,15.82709331,320.44587081274585,325.1190920590998,1 46159U 20057AU  26198.75003471  .00026686  00000+0  12705-3 0  9997,2 46159  53.0362  17.2288 0003487 242.6084 197.0377 15.82709331  5976
STARLINK-1598,46160,53.0429,0.0004162,15.80614187,325.91127929297636,331.49405263092376,1 46160U 20057AV  26197.91240751  .00097054  00000+0  49533-3 0  9996,2 46160  53.0429   7.8896 0004162 307.1276  52.9365 15.80614187328036
STARLINK-1626,46167,53.0362,0.000647,15.86699994,307.21401889257595,315.8704638308982,1 46167U 20057BC  26198.75003471  .00088019  00000+0  33715-3 0  9998,2 46167  53.0362  11.8419 0006470 284.7562 127.8900 15.86699994  6021
STARLINK-1633,46171,53.0255,0.0013168,16.06214436,248.51100434644013,265.98595554642634,1 46171U 20057BG  26198.51598770  .00487869  12458-3  63751-3 0  9991,2 46171  53.0255 330.5479 0013168 318.5049  41.4982 16.06214436328612
STARLINK-1640,46173,53.0362,0.0003446,15.82949239,319.79651057887713,324.4143176506859,1 46173U 20057BJ  26198.75003471  .00045367  00000+0  21080-3 0  9996,2 46173  53.0362  18.2175 0003446 248.6953   5.5891 15.82949239  5960
STARLINK-1641,46174,53.0451,0.0003403,15.68902956,359.74351007892074,364.3308726335581,1 46174U 20057BK  26197.91364399  .00052786  00000+0  45244-3 0  9994,2 46174  53.0451  17.4097 0003403 282.5576  77.5059 15.68902956326651
STARLINK-1695,46329,53.0369,0.0005445,15.87075108,306.8461482816283,314.13006102059353,1 46329U 20062E   26198.75003471  .00045141  00000+0  17209-3 0  9993,2 46329  53.0369  54.7223 0005445 258.5094  21.2646 15.87075108  5914
STARLINK-1719,46331,53.0255,0.00086,16.02347546,262.20388000619914,273.6350971665688,1 46331U 20062G   26198.63224058  .00431902  93911-4  71925-3 0  9996,2 46331  53.0255  52.0597 0008600 259.8775 100.1285 16.02347546325313
STARLINK-1759,46340,52.9993,0.0012183,16.24041396,200.57722177599953,216.62646964746,1 46340U 20062R   26199.04055850  .02170803  11923-4  77540-3 0  9998,2 46340  52.9993  37.3542 0012183 277.0452  82.9201 16.24041396325538
STARLINK-1762,46342,53.1536,0.0004413,15.41761989,437.8997292737049,443.91821925058866,1 46342U 20062T   26198.18656347  .00029906  00000+0  70309-3 0  9992,2 46342  53.1536 124.4249 0004413  38.4996 321.6324 15.41761989324293
